[{"OBJECT_NAME":"STARLINK-37017","OBJECT_ID":"2026-044H","EPOCH":"2026-03-20T04:00:01.999584","MEAN_MOTION":15.80752555,"ECCENTRICITY":0.00014714,"INCLINATION":97.2842,"RA_OF_ASC_NODE":39.8224,"ARG_OF_PERICENTER":94.6321,"MEAN_ANOMALY":108.8865,"EPHEMERIS_TYPE":0,"CLASSIFICATION_TYPE":"U","NORAD_CAT_ID":68108,"ELEMENT_SET_NO":999,"REV_AT_EPOCH":303,"BSTAR":0.00074234105,"MEAN_MOTION_DOT":0.00144005,"MEAN_MOTION_DDOT":0},{"OBJECT_NAME":"STARLINK-36833","OBJECT_ID":"2026-044J","EPOCH":"2026-03-20T04:00:01.999584","MEAN_MOTION":15.80777755,"ECCENTRICITY":0.00013129,"INCLINATION":97.2836,"RA_OF_ASC_NODE":39.8249,"ARG_OF_PERICENTER":109.4781,"MEAN_ANOMALY":102.6322,"EPHEMERIS_TYPE":0,"CLASSIFICATION_TYPE":"U","NORAD_CAT_ID":68109,"ELEMENT_SET_NO":999,"REV_AT_EPOCH":308,"BSTAR":0.00026928725,"MEAN_MOTION_DOT":0.00051655,"MEAN_MOTION_DDOT":0},{"OBJECT_NAME":"STARLINK-36830","OBJECT_ID":"2026-044K","EPOCH":"2026-03-20T04:00:01.999584","MEAN_MOTION":15.80787234,"ECCENTRICITY":6.745e-5,"INCLINATION":97.2839,"RA_OF_ASC_NODE":39.8234,"ARG_OF_PERICENTER":131.231,"MEAN_ANOMALY":76.5865,"EPHEMERIS_TYPE":0,"CLASSIFICATION_TYPE":"U","NORAD_CAT_ID":68110,"ELEMENT_SET_NO":999,"REV_AT_EPOCH":308,"BSTAR":0.00033159367,"MEAN_MOTION_DOT":0.00063754,"MEAN_MOTION_DDOT":0},{"OBJECT_NAME":"STARLINK-36791","OBJECT_ID":"2026-044L","EPOCH":"2026-03-20T04:00:01.999584","MEAN_MOTION":15.80762378,"ECCENTRICITY":0.00014535,"INCLINATION":97.2838,"RA_OF_ASC_NODE":39.8271,"ARG_OF_PERICENTER":123.4945,"MEAN_ANOMALY":92.8691,"EPHEMERIS_TYPE":0,"CLASSIFICATION_TYPE":"U","NORAD_CAT_ID":68111,"ELEMENT_SET_NO":999,"REV_AT_EPOCH":303,"BSTAR":0.00058178272,"MEAN_MOTION_DOT":0.00112469,"MEAN_MOTION_DDOT":0},{"OBJECT_NAME":"STARLINK-36893","OBJECT_ID":"2026-044M","EPOCH":"2026-03-20T04:00:01.999584","MEAN_MOTION":15.80766647,"ECCENTRICITY":0.0001175,"INCLINATION":97.2836,"RA_OF_ASC_NODE":39.8289,"ARG_OF_PERICENTER":84.9145,"MEAN_ANOMALY":135.7421,"EPHEMERIS_TYPE":0,"CLASSIFICATION_TYPE":"U","NORAD_CAT_ID":68112,"ELEMENT_SET_NO":999,"REV_AT_EPOCH":308,"BSTAR":0.00043961113,"MEAN_MOTION_DOT":0.00084694,"MEAN_MOTION_DDOT":0},{"OBJECT_NAME":"STARLINK-36937","OBJECT_ID":"2026-044N","EPOCH":"2026-03-20T04:00:01.999584","MEAN_MOTION":15.8076427,"ECCENTRICITY":8.216e-5,"INCLINATION":97.2836,"RA_OF_ASC_NODE":39.8324,"ARG_OF_PERICENTER":120.8674,"MEAN_ANOMALY":108.3403,"EPHEMERIS_TYPE":0,"CLASSIFICATION_TYPE":"U","NORAD_CAT_ID":68113,"ELEMENT_SET_NO":999,"REV_AT_EPOCH":303,"BSTAR":0.00042886055,"MEAN_MOTION_DOT":0.00082589,"MEAN_MOTION_DDOT":0},{"OBJECT_NAME":"STARLINK-36229","OBJECT_ID":"2026-044P","EPOCH":"2026-03-20T04:00:01.999584","MEAN_MOTION":15.80761157,"ECCENTRICITY":0.00010033,"INCLINATION":97.2834,"RA_OF_ASC_NODE":39.8298,"ARG_OF_PERICENTER":111.38,"MEAN_ANOMALY":113.5593,"EPHEMERIS_TYPE":0,"CLASSIFICATION_TYPE":"U","NORAD_CAT_ID":68114,"ELEMENT_SET_NO":999,"REV_AT_EPOCH":308,"BSTAR":0.00047749661,"MEAN_MOTION_DOT":0.00092059,"MEAN_MOTION_DDOT":0},{"OBJECT_NAME":"STARLINK-36392","OBJECT_ID":"2026-044Q","EPOCH":"2026-03-20T04:00:01.999584","MEAN_MOTION":15.80767007,"ECCENTRICITY":0.00012338,"INCLINATION":97.2834,"RA_OF_ASC_NODE":39.8341,"ARG_OF_PERICENTER":96.6384,"MEAN_ANOMALY":136.8531,"EPHEMERIS_TYPE":0,"CLASSIFICATION_TYPE":"U","NORAD_CAT_ID":68115,"ELEMENT_SET_NO":999,"REV_AT_EPOCH":308,"BSTAR":0.00028439952,"MEAN_MOTION_DOT":0.00054553,"MEAN_MOTION_DDOT":0},{"OBJECT_NAME":"STARLINK-36805","OBJECT_ID":"2026-044R","EPOCH":"2026-03-20T04:00:01.999584","MEAN_MOTION":15.80765888,"ECCENTRICITY":0.00010232,"INCLINATION":97.2833,"RA_OF_ASC_NODE":39.8351,"ARG_OF_PERICENTER":93.7469,"MEAN_ANOMALY":144.016,"EPHEMERIS_TYPE":0,"CLASSIFICATION_TYPE":"U","NORAD_CAT_ID":68116,"ELEMENT_SET_NO":999,"REV_AT_EPOCH":308,"BSTAR":0.0003603441,"MEAN_MOTION_DOT":0.00069271,"MEAN_MOTION_DDOT":0},{"OBJECT_NAME":"STARLINK-36844","OBJECT_ID":"2026-044S","EPOCH":"2026-03-20T04:00:01.999584","MEAN_MOTION":15.80784857,"ECCENTRICITY":0.00014307,"INCLINATION":97.283,"RA_OF_ASC_NODE":39.8375,"ARG_OF_PERICENTER":95.378,"MEAN_ANOMALY":146.6523,"EPHEMERIS_TYPE":0,"CLASSIFICATION_TYPE":"U","NORAD_CAT_ID":68117,"ELEMENT_SET_NO":999,"REV_AT_EPOCH":303,"BSTAR":0.00025202073,"MEAN_MOTION_DOT":0.00048331,"MEAN_MOTION_DDOT":0},{"OBJECT_NAME":"STARLINK-36789","OBJECT_ID":"2026-044T","EPOCH":"2026-03-20T04:00:01.999584","MEAN_MOTION":15.8075502,"ECCENTRICITY":9.52e-5,"INCLINATION":97.2829,"RA_OF_ASC_NODE":39.8387,"ARG_OF_PERICENTER":124.7619,"MEAN_ANOMALY":121.5442,"EPHEMERIS_TYPE":0,"CLASSIFICATION_TYPE":"U","NORAD_CAT_ID":68118,"ELEMENT_SET_NO":999,"REV_AT_EPOCH":303,"BSTAR":0.00053421855,"MEAN_MOTION_DOT":0.00103114,"MEAN_MOTION_DDOT":0},{"OBJECT_NAME":"STARLINK-36850","OBJECT_ID":"2026-044U","EPOCH":"2026-03-20T04:00:01.999584","MEAN_MOTION":15.80761385,"ECCENTRICITY":0.00014844,"INCLINATION":97.2827,"RA_OF_ASC_NODE":39.8405,"ARG_OF_PERICENTER":97.1452,"MEAN_ANOMALY":153.4423,"EPHEMERIS_TYPE":0,"CLASSIFICATION_TYPE":"U","NORAD_CAT_ID":68119,"ELEMENT_SET_NO":999,"REV_AT_EPOCH":303,"BSTAR":0.00039329567,"MEAN_MOTION_DOT":0.0007566,"MEAN_MOTION_DDOT":0},{"OBJECT_NAME":"STARLINK-36868","OBJECT_ID":"2026-044V","EPOCH":"2026-03-20T04:00:01.999584","MEAN_MOTION":15.8077139,"ECCENTRICITY":0.00013158,"INCLINATION":97.2826,"RA_OF_ASC_NODE":39.8429,"ARG_OF_PERICENTER":92.9559,"MEAN_ANOMALY":161.9032,"EPHEMERIS_TYPE":0,"CLASSIFICATION_TYPE":"U","NORAD_CAT_ID":68120,"ELEMENT_SET_NO":999,"REV_AT_EPOCH":303,"BSTAR":0.00032296431,"MEAN_MOTION_DOT":0.00062035,"MEAN_MOTION_DDOT":0},{"OBJECT_NAME":"STARLINK-36855","OBJECT_ID":"2026-044W","EPOCH":"2026-03-20T04:00:01.999584","MEAN_MOTION":15.80761435,"ECCENTRICITY":0.00014228,"INCLINATION":97.2823,"RA_OF_ASC_NODE":39.8447,"ARG_OF_PERICENTER":94.6507,"MEAN_ANOMALY":164.4816,"EPHEMERIS_TYPE":0,"CLASSIFICATION_TYPE":"U","NORAD_CAT_ID":68121,"ELEMENT_SET_NO":999,"REV_AT_EPOCH":303,"BSTAR":0.00036539775,"MEAN_MOTION_DOT":0.0007024,"MEAN_MOTION_DDOT":0},{"OBJECT_NAME":"STARLINK-36366","OBJECT_ID":"2026-044X","EPOCH":"2026-03-20T04:00:01.999584","MEAN_MOTION":15.80775238,"ECCENTRICITY":0.00011471,"INCLINATION":97.2816,"RA_OF_ASC_NODE":39.846,"ARG_OF_PERICENTER":75.6773,"MEAN_ANOMALY":187.7222,"EPHEMERIS_TYPE":0,"CLASSIFICATION_TYPE":"U","NORAD_CAT_ID":68122,"ELEMENT_SET_NO":999,"REV_AT_EPOCH":308,"BSTAR":0.00034057143,"MEAN_MOTION_DOT":0.00065462,"MEAN_MOTION_DDOT":0},{"OBJECT_NAME":"STARLINK-36922","OBJECT_ID":"2026-044Y","EPOCH":"2026-03-20T04:00:01.999584","MEAN_MOTION":15.80834709,"ECCENTRICITY":0.0001706,"INCLINATION":97.2815,"RA_OF_ASC_NODE":39.8501,"ARG_OF_PERICENTER":96.6416,"MEAN_ANOMALY":175.2824,"EPHEMERIS_TYPE":0,"CLASSIFICATION_TYPE":"U","NORAD_CAT_ID":68123,"ELEMENT_SET_NO":999,"REV_AT_EPOCH":308,"BSTAR":-0.00022984776,"MEAN_MOTION_DOT":-0.00043987,"MEAN_MOTION_DDOT":0}]
