STARLINK-37017          
1 68108U 26044H   26079.16668981  .00144005  00000+0  74234-3 0  9994
2 68108  97.2842  39.8224 0001471  94.6321 108.8865 15.80752555  3038
STARLINK-36833          
1 68109U 26044J   26079.16668981  .00051655  00000+0  26929-3 0  9991
2 68109  97.2836  39.8249 0001312 109.4781 102.6322 15.80777755  3082
STARLINK-36830          
1 68110U 26044K   26079.16668981  .00063754  00000+0  33159-3 0  9999
2 68110  97.2839  39.8234 0000674 131.2310  76.5865 15.80787234  3086
STARLINK-36791          
1 68111U 26044L   26079.16668981  .00112469  00000+0  58178-3 0  9996
2 68111  97.2838  39.8271 0001453 123.4945  92.8691 15.80762378  3035
STARLINK-36893          
1 68112U 26044M   26079.16668981  .00084694  00000+0  43961-3 0  9999
2 68112  97.2836  39.8289 0001175  84.9145 135.7421 15.80766647  3083
STARLINK-36937          
1 68113U 26044N   26079.16668981  .00082589  00000+0  42886-3 0  9996
2 68113  97.2836  39.8324 0000821 120.8674 108.3403 15.80764270  3039
STARLINK-36229          
1 68114U 26044P   26079.16668981  .00092059  00000+0  47750-3 0  9995
2 68114  97.2834  39.8298 0001003 111.3800 113.5593 15.80761157  3081
STARLINK-36392          
1 68115U 26044Q   26079.16668981  .00054553  00000+0  28440-3 0  9998
2 68115  97.2834  39.8341 0001233  96.6384 136.8531 15.80767007  3088
STARLINK-36805          
1 68116U 26044R   26079.16668981  .00069271  00000+0  36034-3 0  9990
2 68116  97.2833  39.8351 0001023  93.7469 144.0160 15.80765888  3082
STARLINK-36844          
1 68117U 26044S   26079.16668981  .00048331  00000+0  25202-3 0  9990
2 68117  97.2830  39.8375 0001430  95.3780 146.6523 15.80784857  3035
STARLINK-36789          
1 68118U 26044T   26079.16668981  .00103114  00000+0  53422-3 0  9997
2 68118  97.2829  39.8387 0000952 124.7619 121.5442 15.80755020  3035
STARLINK-36850          
1 68119U 26044U   26079.16668981  .00075660  00000+0  39330-3 0  9994
2 68119  97.2827  39.8405 0001484  97.1452 153.4423 15.80761385  3038
STARLINK-36868          
1 68120U 26044V   26079.16668981  .00062035  00000+0  32296-3 0  9992
2 68120  97.2826  39.8429 0001315  92.9559 161.9032 15.80771390  3036
STARLINK-36855          
1 68121U 26044W   26079.16668981  .00070240  00000+0  36540-3 0  9996
2 68121  97.2823  39.8447 0001422  94.6507 164.4816 15.80761435  3032
STARLINK-36366          
1 68122U 26044X   26079.16668981  .00065462  00000+0  34057-3 0  9998
2 68122  97.2816  39.8460 0001147  75.6773 187.7222 15.80775238  3088
STARLINK-36922          
1 68123U 26044Y   26079.16668981 -.00043987  00000+0 -22985-3 0  9996
2 68123  97.2815  39.8501 0001706  96.6416 175.2824 15.80834709  3081
